ONEWEB-0040             
1 45147U 20008S   25174.55105864 -.00000085  00000+0 -27999-3 0  9997
2 45147  87.8836 107.8007 0001933  79.1017 281.0328 13.10376790261681
ONEWEB-0043             
1 45149U 20008U   25174.55272015  .00000045  00000+0  91966-4 0  9992
2 45149  87.8831 107.7869 0001555  75.8951 284.2349 13.10376726261219
ONEWEB-0044             
1 45150U 20008V   25173.51194039  .00000346  00000+0  95450-3 0  9993
2 45150  87.8822 107.9864 0001748  78.3140 281.8183 13.10369632262140
ONEWEB-0045             
1 45151U 20008W   25174.18733674 -.00000527  00000+0 -15241-2 0  9994
2 45151  87.8842  92.5907 0001925  81.4734 278.6612 13.11417021263353
ONEWEB-0047             
1 45152U 20008X   25174.80339310  .00000626  00000+0  17575-2 0  9993
2 45152  87.8827 107.7380 0001915  79.9943 280.1400 13.10372259262055
ONEWEB-0048             
1 45153U 20008Y   25174.26390236  .00000657  00000+0  18446-2 0  9990
2 45153  87.8828 107.8687 0001953  79.2570 280.8778 13.10373632260801
ONEWEB-0049             
1 45154U 20008Z   25174.57181568  .00000629  00000+0  17664-2 0  9991
2 45154  87.8834 107.8016 0001826  63.7374 296.3940 13.10374523261066
ONEWEB-0051             
1 45155U 20008AA  25174.18563948 -.00000551  00000+0 -15896-2 0  9996
2 45155  87.8842  92.6347 0002029  77.9267 282.2088 13.11416170264031
ONEWEB-0052             
1 45156U 20008AB  25174.56683972  .00000590  00000+0  16551-2 0  9999
2 45156  87.8827 107.7446 0001705  63.1736 296.9565 13.10375002260979
ONEWEB-0053             
1 45157U 20008AC  25174.54939607 -.00000118  00000+0 -37504-3 0  9997
2 45157  87.8831 107.8097 0001810  87.9467 272.1868 13.10377294260944
ONEWEB-0054             
1 45158U 20008AD  25174.50791061  .00000381  00000+0  10538-2 0  9991
2 45158  87.8823 107.7929 0002009  76.8390 283.2962 13.10370008261059
ONEWEB-0056             
1 45159U 20008AE  25174.56520257  .00000552  00000+0  15456-2 0  9999
2 45159  87.8830 107.7780 0001977  77.5447 282.5901 13.10376965261218
ONEWEB-0057             
1 45160U 20008AF  25174.80172641  .00000576  00000+0  16141-2 0  9996
2 45160  87.8829 107.7441 0001823  76.9772 283.1558 13.10373374261908
ONEWEB-0058             
1 45161U 20008AG  25174.55950273  .00000381  00000+0  10545-2 0  9990
2 45161  87.8827 107.8049 0002092  82.2169 277.9196 13.10376829261458
ONEWEB-0059             
1 45162U 20008AH  25174.55604487  .00000200  00000+0  53578-3 0  9998
2 45162  87.8832 107.8028 0002087  80.9542 279.1821 13.10376589261357
ONEWEB-0062             
1 45163U 20008AJ  25174.50542262  .00000488  00000+0  13627-2 0  9994
2 45163  87.8825 107.7937 0002379  77.7909 282.3484 13.10370338261967
ONEWEB-0065             
1 45164U 20008AK  25174.56101362  .00000414  00000+0  11488-2 0  9995
2 45164  87.8836 107.8049 0001808  69.7811 290.3510 13.10374308260918
STARLINK-1143           
1 45179U 20012B   25174.26282120  .00039749  00000+0  15433-2 0  9992
2 45179  53.0559 117.8785 0002284  62.2730 297.8499 15.25724632295920
STARLINK-1200           
1 45181U 20012D   25174.91668981  .00008662  00000+0  82232-4 0  9993
2 45181  53.0521 120.8272 0001362  93.9372 114.2221 15.67841967295287
STARLINK-1201           
1 45182U 20012E   25173.66668981  .00170202  00000+0  16729-2 0  9991
2 45182  53.0479 104.7443 0003233 148.5493 128.7042 15.64975393295404
STARLINK-1202           
1 45183U 20012F   25174.88750981  .00000626  00000+0  60925-4 0  9990
2 45183  53.0545 128.4233 0001536  77.0425 283.0735 15.06397209295183
STARLINK-1216           
1 45185U 20012H   25174.88015746 -.00000916  00000+0 -42588-4 0  9994
2 45185  53.0560 128.4596 0001691  82.9782 277.1400 15.06382268295189
STARLINK-1224           
1 45186U 20012J   25174.58198251  .00110408  00000+0  10239-2 0  9997
2 45186  53.0513 122.2136 0001411 108.5921 251.5247 15.66659163295249
STARLINK-1225           
1 45187U 20012K   25174.30146146  .00001247  00000+0  10265-3 0  9994
2 45187  53.0551 131.0580 0001222  94.4108 265.7021 15.06377015295731
STARLINK-1228           
1 45188U 20012L   25173.42416447  .00141675  00000+0  12664-2 0  9995
2 45188  53.0472  67.5361 0005926 104.0606 256.1068 15.67430074296503
STARLINK-1230           
1 45189U 20012M   25174.57051429  .00000018  00000+0  20110-4 0  9990
2 45189  53.0547 129.8480 0001469  84.8682 275.2475 15.06397210294844
STARLINK-1234           
1 45190U 20012N   25174.78799396  .00000424  00000+0  47381-4 0  9997
2 45190  53.0556  88.8710 0001502  90.1859 269.9302 15.06392434295393
STARLINK-1237           
1 45192U 20012Q   25174.58335648 -.00027418  00000+0 -23653-3 0  9992
2 45192  53.0560 122.8266 0001686  93.7819  30.9643 15.68199948  5849
STARLINK-1240           
1 45194U 20012S   25174.58370474  .00105862  00000+0  11219-2 0  9992
2 45194  53.0502 120.2867 0003061 146.7441 213.3765 15.63315937294974
STARLINK-1244           
1 45196U 20012U   25174.25622457  .00113482  00000+0  10928-2 0  9992
2 45196  53.0480 123.4221 0001688 126.9779 233.1391 15.65707290295893
STARLINK-1269           
1 45197U 20012V   25174.58159177  .00000781  00000+0  71338-4 0  9994
2 45197  53.0555 129.7963 0000798  68.7731 291.3344 15.06391117294874
STARLINK-1154           
1 45198U 20012W   25174.24061603  .00001243  00000+0  10228-3 0  9998
2 45198  53.0553 111.3269 0001390  88.0806 272.0342 15.06416632295950
STARLINK-1199           
1 45201U 20012Z   25173.85357967  .00002290  00000+0  17254-3 0  9999
2 45201  53.0547 113.0678 0001506  91.7110 268.4052 15.06416544295958
STARLINK-1206           
1 45204U 20012AC  25174.18653982  .00114116  00000+0  11900-2 0  9997
2 45204  53.0509 103.5290 0001797 137.7190 222.3962 15.63694838296131
STARLINK-1208           
1 45205U 20012AD  25174.49638909  .00100259  00000+0  11491-2 0  9992
2 45205  53.0503 100.9559 0003733 158.4669 201.6501 15.61322068296206
STARLINK-1209           
1 45206U 20012AE  25174.79167727  .00000715  00000+0  66928-4 0  9994
2 45206  53.0561  88.8594 0001478  83.6503 276.4654 15.06387727295428
STARLINK-1210           
1 45207U 20012AF  25174.71314501  .00057646  00000+0  17223-2 0  9998
2 45207  53.0327  83.0911 0008872   5.3897 354.7198 15.34029667295511
STARLINK-1219           
1 45210U 20012AJ  25173.46327783  .00134581  00000+0  96404-3 0  9992
2 45210  53.0485  79.3348 0009546  83.4807 276.7297 15.72748750295447
STARLINK-1231           
1 45212U 20012AL  25174.22587355  .00000461  00000+0  49863-4 0  9999
2 45212  53.0548 111.3975 0001378  82.1056 278.0089 15.06402304295969
STARLINK-1271           
1 45217U 20012AR  25174.23693811  .00000526  00000+0  54197-4 0  9998
2 45217  53.0547 111.3447 0001480  90.9848 269.1310 15.06398987296013
STARLINK-1187           
1 45219U 20012AT  25174.94216345  .01316633  11893-4  52219-3 0  9990
2 45219  53.0310 351.0453 0010748 292.1181 190.5107 16.22850864296798
STARLINK-1191           
1 45222U 20012AW  25174.77694098  .00000192  00000+0  31770-4 0  9992
2 45222  53.0544  88.9198 0001850  91.4272 268.6929 15.06391798295434
STARLINK-1212           
1 45223U 20012AX  25174.46371002 -.00000920  00000+0 -42843-4 0  9990
2 45223  53.0546  90.9822 0001672  90.6192 269.4989 15.06398111296328
STARLINK-1215           
1 45225U 20012AZ  25174.75113578  .00000416  00000+0  46802-4 0  9993
2 45225  53.0534  89.0375 0001244  89.2052 270.9080 15.06388512295437
STARLINK-1217           
1 45226U 20012BA  25174.44320201  .00101492  00000+0  13887-2 0  9994
2 45226  53.0541  82.1245 0001786 157.6045 202.5044 15.56635447296359
STARLINK-1221           
1 45227U 20012BB  25174.64357265  .00006582  00000+0  21469-3 0  9997
2 45227  53.0715  47.8161 0002198 272.9002  87.1747 15.33031792295983
STARLINK-1222           
1 45228U 20012BC  25174.78430520 -.00000322  00000+0 -26870-5 0  9990
2 45228  53.0542  88.8872 0001698  82.2149 277.9033 15.06391173295444
STARLINK-1226           
1 45229U 20012BD  25174.48208410 -.00000206  00000+0  50750-5 0  9993
2 45229  53.0569  90.2481 0002440  97.4612 262.6654 15.06373609296227
STARLINK-1227           
1 45230U 20012BE  25174.47836423 -.00001239  00000+0 -64265-4 0  9998
2 45230  53.0558  90.2620 0001318  93.4949 266.6190 15.06401098296340
STARLINK-1238           
1 45233U 20012BH  25174.76746944  .00102710  00000+0  12380-2 0  9994
2 45233  53.0492 100.1161 0004217 148.3362 211.7904 15.59994788295277
STARLINK-1246           
1 45235U 20012BK  25174.29409308 -.00000026  00000+0  17181-4 0  9998
2 45235  53.0550 131.0873 0001310  89.3571 270.7568 15.06395658295762
STARLINK-1247           
1 45236U 20012BL  25174.46330844  .00100013  00000+0  11690-2 0  9999
2 45236  53.0538  81.7135 0003179 137.1995 222.9265 15.60814776296444
STARLINK-1270           
1 45237U 20012BM  25173.50160069  .00000880  00000+0  77987-4 0  9998
2 45237  53.0552  94.6473 0001465  91.2471 268.8686 15.06395413296183
JCSAT-17                
1 45245U 20013A   25174.81328828 -.00000313  00000+0  00000+0 0  9991
2 45245   5.4369 353.3471 0003056 114.3959 233.2665  1.00270587 19659
GEO-KOMPSAT-2B          
1 45246U 20013B   25174.50636032 -.00000339  00000+0  00000+0 0  9995
2 45246   0.0318 227.7351 0000753  27.0741 327.6618  1.00272092 19688
MERIDIAN 9              
1 45254U 20015A   25173.55883665 -.00000227  00000+0  00000+0 0  9992
2 45254  65.2861 358.2131 6940580 283.7074  12.9209  2.00604496 39079
BEIDOU-3 G2             
1 45344U 20017A   25174.60330256 -.00000140  00000+0  00000+0 0  9998
2 45344   2.8837  40.6072 0001610  42.7346 125.8738  1.00271832 19663
COSMOS 2545 [GLONASS-M] 
1 45358U 20018A   25173.30224814 -.00000065  00000+0  00000+0 0  9998
2 45358  64.5679 325.0450 0008288 233.2150 126.7009  2.13102444 40993
STARLINK-1279           
1 45360U 20019A   25174.52167923  .00001628  00000+0  12817-3 0  9992
2 45360  53.0536 220.0660 0001250  90.7392 269.3740 15.06400776291072
